{
"type": "FeatureCollection",
"name": "wayne_county",
"crs": { "type": "name", "properties": { "name": "urn:ogc:def:crs:OGC:1.3:CRS84" } },
"features": [
{ "type": "Feature", "properties": { "STATEFP": "26", "COUNTYFP": "163", "COUNTYNS": "01623022", "GEOIDFQ": "0500000US26163", "GEOID": "26163", "NAME": "Wayne", "NAMELSAD": "Wayne County", "STUSPS": "MI", "STATE_NAME": "Michigan", "LSAD": "06", "ALAND": 1584666038.0, "AWATER": 156818731.0 }, "geometry": { "type": "MultiPolygon", "coordinates": [ [ [ [ -83.191591, 42.035369 ], [ -83.189927, 42.035987 ], [ -83.188977, 42.034928 ], [ -83.189214, 42.033339 ], [ -83.190997, 42.033428 ], [ -83.191591, 42.035369 ] ] ], [ [ [ -83.551907, 42.435166 ], [ -83.512502, 42.436482 ], [ -83.497209, 42.436961 ], [ -83.493009, 42.437098 ], [ -83.483248, 42.437415 ], [ -83.473957, 42.437652 ], [ -83.473887, 42.437654 ], [ -83.464412, 42.437978 ], [ -83.46021, 42.438103 ], [ -83.453704, 42.43829 ], [ -83.453068, 42.438308 ], [ -83.433734, 42.43894 ], [ -83.433672, 42.438942 ], [ -83.431866, 42.439006 ], [ -83.423917, 42.439263 ], [ -83.414357, 42.439523 ], [ -83.399629, 42.43991 ], [ -83.39477, 42.440028 ], [ -83.385307, 42.440276 ], [ -83.375469, 42.440557 ], [ -83.367896, 42.440774 ], [ -83.365711, 42.440838 ], [ -83.365563, 42.440842 ], [ -83.355901, 42.441086 ], [ -83.346305, 42.441333 ], [ -83.346035, 42.441339 ], [ -83.336456, 42.441575 ], [ -83.330184, 42.441725 ], [ -83.320551, 42.441944 ], [ -83.316825, 42.442033 ], [ -83.312072, 42.442121 ], [ -83.297426, 42.442488 ], [ -83.287803, 42.442683 ], [ -83.278517, 42.442864 ], [ -83.278263, 42.442868 ], [ -83.268509, 42.443156 ], [ -83.258867, 42.443403 ], [ -83.250371, 42.443628 ], [ -83.239423, 42.443918 ], [ -83.226042, 42.44421 ], [ -83.225608, 42.444219 ], [ -83.219806, 42.444346 ], [ -83.219631, 42.444349 ], [ -83.216746, 42.444414 ], [ -83.210254, 42.444568 ], [ -83.204896, 42.444716 ], [ -83.203632, 42.444746 ], [ -83.203382, 42.444751 ], [ -83.200522, 42.444839 ], [ -83.190798, 42.445147 ], [ -83.187057, 42.44522 ], [ -83.181005, 42.445343 ], [ -83.171265, 42.445545 ], [ -83.161516, 42.445794 ], [ -83.151986, 42.446007 ], [ -83.150944, 42.446031 ], [ -83.147211, 42.446115 ], [ -83.14206, 42.446229 ], [ -83.136553, 42.446345 ], [ -83.124708, 42.446578 ], [ -83.117492, 42.446719 ], [ -83.11263, 42.446799 ], [ -83.112342, 42.446809 ], [ -83.109626, 42.446959 ], [ -83.102875, 42.44714 ], [ -83.097421, 42.44682 ], [ -83.094929, 42.446862 ], [ -83.0947, 42.446865 ], [ -83.090247, 42.446994 ], [ -83.088295, 42.447048 ], [ -83.083393, 42.447153 ], [ -83.081037, 42.447055 ], [ -83.071046, 42.447175 ], [ -83.063877, 42.447258 ], [ -83.061678, 42.447318 ], [ -83.059862, 42.447366 ], [ -83.054057, 42.447507 ], [ -83.044282, 42.447765 ], [ -83.039417, 42.447874 ], [ -83.034519, 42.447936 ], [ -83.024745, 42.448159 ], [ -83.007274, 42.448725 ], [ -83.005534, 42.448806 ], [ -83.005185, 42.448819 ], [ -83.002698, 42.448901 ], [ -82.994199, 42.449087 ], [ -82.985659, 42.44928 ], [ -82.978318, 42.449465 ], [ -82.971041, 42.449665 ], [ -82.967938, 42.449836 ], [ -82.966093, 42.449886 ], [ -82.957706, 42.450026 ], [ -82.95621, 42.450048 ], [ -82.955483, 42.450063 ], [ -82.946055, 42.450228 ], [ -82.942995, 42.450199 ], [ -82.941283, 42.45023 ], [ -82.940741, 42.450224 ], [ -82.936831, 42.450284 ], [ -82.935403, 42.450159 ], [ -82.933975, 42.450421 ], [ -82.928579, 42.45062 ], [ -82.917792, 42.450705 ], [ -82.917391, 42.450718 ], [ -82.914608, 42.450731 ], [ -82.910722, 42.450772 ], [ -82.904734, 42.450774 ], [ -82.899175, 42.450845 ], [ -82.891833, 42.450892 ], [ -82.883986, 42.450908 ], [ -82.877182, 42.450955 ], [ -82.870239004092298, 42.451009069875496 ], [ -82.870347, 42.450888 ], [ -82.874396, 42.441664 ], [ -82.873831, 42.435423 ], [ -82.873955145633403, 42.435287811153103 ], [ -82.876574, 42.432436 ], [ -82.878656, 42.428995 ], [ -82.883345115118601, 42.4155542566644 ], [ -82.88587, 42.408317 ], [ -82.881519, 42.406591 ], [ -82.881998960669094, 42.405575977437003 ], [ -82.882181, 42.405191 ], [ -82.88266, 42.404878 ], [ -82.886543, 42.405576 ], [ -82.88722, 42.402844 ], [ -82.888603, 42.397993 ], [ -82.890179, 42.395014 ], [ -82.894013, 42.389437 ], [ -82.898413, 42.385437 ], [ -82.900014777052107, 42.384430337897001 ], [ -82.903823, 42.382037 ], [ -82.905870775670806, 42.381329682214499 ], [ -82.911755058420496, 42.379297204779 ], [ -82.915114, 42.378137 ], [ -82.919114, 42.374437 ], [ -82.918542, 42.373006 ], [ -82.920022, 42.372058 ], [ -82.922361654354305, 42.369088770758403 ], [ -82.923545, 42.367587 ], [ -82.924551, 42.362329 ], [ -82.928789, 42.360205 ], [ -82.928772422871802, 42.359788300957099 ], [ -82.928752485081603, 42.359287124996399 ], [ -82.928722232353607, 42.358526662587401 ], [ -82.928716, 42.35837 ], [ -82.932593, 42.357185 ], [ -82.952975436003399, 42.354976485651299 ], [ -82.955804, 42.35467 ], [ -82.964455, 42.355166 ], [ -82.966593088111694, 42.352887020532897 ], [ -82.96705, 42.3524 ], [ -82.962684, 42.349655 ], [ -82.954311, 42.34891 ], [ -82.953909, 42.346926 ], [ -82.959763, 42.34003 ], [ -82.988619, 42.332439 ], [ -83.0080353929919, 42.331588148110001 ], [ -83.013333, 42.331356 ], [ -83.019024, 42.330616 ], [ -83.024034335813397, 42.329430475326298 ], [ -83.026234, 42.32891 ], [ -83.04058, 42.324093 ], [ -83.040841132631499, 42.324011049677402 ], [ -83.050098, 42.321106 ], [ -83.063637, 42.316857 ], [ -83.07193, 42.311842 ], [ -83.073484720075996, 42.311030335560098 ], [ -83.078207, 42.308565 ], [ -83.078390786946599, 42.308416035843202 ], [ -83.080392, 42.306794 ], [ -83.09729, 42.290068 ], [ -83.099643, 42.287136 ], [ -83.099910026452903, 42.286611661022697 ], [ -83.108412, 42.269917 ], [ -83.11203, 42.260587 ], [ -83.114352366644198, 42.256993497778602 ], [ -83.126361, 42.238412 ], [ -83.126958157121607, 42.234561356445397 ], [ -83.130606, 42.211039 ], [ -83.130843488556806, 42.208749731005803 ], [ -83.131463696427204, 42.202771242327998 ], [ -83.134384, 42.174621 ], [ -83.132948497039706, 42.169936532156797 ], [ -83.13051, 42.161979 ], [ -83.128066223605103, 42.150514468518402 ], [ -83.125304, 42.137556 ], [ -83.125291879826605, 42.137536180128897 ], [ -83.125126812034495, 42.137266248151803 ], [ -83.121279, 42.130974 ], [ -83.119228, 42.125263 ], [ -83.12127, 42.117454 ], [ -83.124992, 42.108543 ], [ -83.127526, 42.104968 ], [ -83.13202, 42.090166 ], [ -83.142583, 42.090761 ], [ -83.145632, 42.088887 ], [ -83.152413, 42.088985 ], [ -83.154459, 42.086074 ], [ -83.158182, 42.085705 ], [ -83.161408, 42.089858 ], [ -83.163142764808597, 42.089643822095198 ], [ -83.168236, 42.089015 ], [ -83.172791, 42.087161 ], [ -83.172028, 42.082498 ], [ -83.169374, 42.076433 ], [ -83.170534, 42.074824 ], [ -83.173097, 42.075288 ], [ -83.178078, 42.082355 ], [ -83.182364, 42.08338 ], [ -83.183067785599405, 42.082551026827602 ], [ -83.185709, 42.07944 ], [ -83.190174381857304, 42.0777655865067 ], [ -83.19104, 42.077441 ], [ -83.192165, 42.065985 ], [ -83.18866, 42.055558 ], [ -83.186695, 42.051968 ], [ -83.186657, 42.047704 ], [ -83.187602, 42.044309 ], [ -83.195394, 42.039871 ], [ -83.199842, 42.03895 ], [ -83.210017, 42.043678 ], [ -83.213112, 42.043286 ], [ -83.212795270963298, 42.041993060024602 ], [ -83.214211, 42.042577 ], [ -83.217739, 42.044686 ], [ -83.218683, 42.048133 ], [ -83.219674, 42.04912 ], [ -83.223176, 42.048514 ], [ -83.225464, 42.049104 ], [ -83.225644, 42.049127 ], [ -83.229087, 42.048326 ], [ -83.230433, 42.048678 ], [ -83.230645, 42.049504 ], [ -83.228958, 42.052926 ], [ -83.229302, 42.054855 ], [ -83.232312, 42.054857 ], [ -83.233335, 42.056136 ], [ -83.233364, 42.057878 ], [ -83.234393, 42.059025 ], [ -83.236655, 42.057933 ], [ -83.239103, 42.059814 ], [ -83.240911, 42.059766 ], [ -83.243171, 42.06151 ], [ -83.24861, 42.060627 ], [ -83.250008, 42.063458 ], [ -83.251996, 42.064153 ], [ -83.254548, 42.063962 ], [ -83.251541, 42.067652 ], [ -83.252355, 42.068379 ], [ -83.254075, 42.068013 ], [ -83.254878, 42.068657 ], [ -83.255299, 42.070778 ], [ -83.257615, 42.073684 ], [ -83.259843, 42.074246 ], [ -83.260629, 42.072923 ], [ -83.262615, 42.072737 ], [ -83.264314, 42.069283 ], [ -83.266295, 42.068663 ], [ -83.267598, 42.069084 ], [ -83.269989, 42.071388 ], [ -83.268776, 42.074281 ], [ -83.270437, 42.076132 ], [ -83.273043, 42.07495 ], [ -83.277073, 42.076095 ], [ -83.277339, 42.077315 ], [ -83.275253, 42.080306 ], [ -83.278189, 42.079374 ], [ -83.280443, 42.081638 ], [ -83.277617, 42.081856 ], [ -83.277228, 42.082704 ], [ -83.279351, 42.083947 ], [ -83.281694, 42.08342 ], [ -83.282456, 42.084396 ], [ -83.28027, 42.085457 ], [ -83.283245, 42.086126 ], [ -83.283141, 42.08939 ], [ -83.28492, 42.08973 ], [ -83.284525, 42.088158 ], [ -83.286837, 42.088498 ], [ -83.286314, 42.089066 ], [ -83.286216, 42.089093 ], [ -83.285689, 42.089475 ], [ -83.285655, 42.089556 ], [ -83.285712, 42.090094 ], [ -83.286001, 42.090516 ], [ -83.286238, 42.090767 ], [ -83.287215, 42.089464 ], [ -83.289344, 42.090043 ], [ -83.290232, 42.091913 ], [ -83.293039, 42.092378 ], [ -83.295268, 42.094243 ], [ -83.303606, 42.094245 ], [ -83.303885, 42.094241 ], [ -83.308624, 42.094186 ], [ -83.330101, 42.094095 ], [ -83.342546, 42.094047 ], [ -83.345238, 42.094037 ], [ -83.353996, 42.094012 ], [ -83.355095, 42.094008 ], [ -83.377159, 42.093901 ], [ -83.381501, 42.093862 ], [ -83.4086, 42.093657 ], [ -83.420761, 42.093568 ], [ -83.420622, 42.087777 ], [ -83.479967, 42.086879 ], [ -83.494488, 42.086517 ], [ -83.500167, 42.086374 ], [ -83.539396, 42.085598 ], [ -83.540224, 42.114825 ], [ -83.540449, 42.121855 ], [ -83.541044, 42.143907 ], [ -83.542102, 42.174344 ], [ -83.542882, 42.197043 ], [ -83.542903, 42.197812 ], [ -83.54344, 42.209356 ], [ -83.543442, 42.209414 ], [ -83.543583, 42.218757 ], [ -83.544153, 42.232029 ], [ -83.544433, 42.248812 ], [ -83.544401, 42.249448 ], [ -83.544295, 42.251534 ], [ -83.544046, 42.256132 ], [ -83.543728, 42.262462 ], [ -83.544203, 42.276894 ], [ -83.544563, 42.286175 ], [ -83.544759, 42.291234 ], [ -83.544839, 42.293007 ], [ -83.545205, 42.301819 ], [ -83.545375, 42.305817 ], [ -83.545802, 42.313313 ], [ -83.546152, 42.320317 ], [ -83.546481, 42.327576 ], [ -83.547548, 42.349217 ], [ -83.548226, 42.363936 ], [ -83.548372, 42.367132 ], [ -83.549208, 42.383325 ], [ -83.549667, 42.392609 ], [ -83.550363, 42.407081 ], [ -83.551156, 42.421585 ], [ -83.551907, 42.435166 ] ] ] ] } }
]
}
