{
"type": "FeatureCollection",
"name": "wayne_county_buffer_15km",
"crs": { "type": "name", "properties": { "name": "urn:ogc:def:crs:OGC:1.3:CRS84" } },
"features": [
{ "type": "Feature", "properties": { "STATEFP": "26", "COUNTYFP": "163", "COUNTYNS": "01623022", "GEOIDFQ": "0500000US26163", "GEOID": "26163", "NAME": "Wayne", "NAMELSAD": "Wayne County", "STUSPS": "MI", "STATE_NAME": "Michigan", "LSAD": "06", "ALAND": 1584666038.0, "AWATER": 156818731.0 }, "geometry": { "type": "Polygon", "coordinates": [ [ [ -83.734000512029795, 42.429494011242738 ], [ -83.734162173116019, 42.436541567671554 ], [ -83.733827069690818, 42.443585762488482 ], [ -83.732995948061273, 42.450607394894213 ], [ -83.731670907942075, 42.457587319174358 ], [ -83.729855398543165, 42.464506496944857 ], [ -83.727554210947588, 42.471346049174237 ], [ -83.724773466780704, 42.478087307840163 ], [ -83.721520603182626, 42.484711867077174 ], [ -83.717804354106278, 42.491201633673839 ], [ -83.713634727974778, 42.49753887677776 ], [ -83.709022981742365, 42.503706276669362 ], [ -83.703981591414973, 42.509686972466376 ], [ -83.698524219096427, 42.515464608623859 ], [ -83.692665676638953, 42.521023380097034 ], [ -83.686421885986135, 42.526348076037522 ], [ -83.679809836308536, 42.531424121897096 ], [ -83.672847538042475, 42.53623761981725 ], [ -83.665553973952612, 42.540775387186962 ], [ -83.657949047350243, 42.545024993256234 ], [ -83.650053527608065, 42.54897479369798 ], [ -83.641888993122322, 42.552613963016569 ], [ -83.633477771882312, 42.555932524707032 ], [ -83.624842879815731, 42.558921379075805 ], [ -83.616007957086396, 42.561572328639656 ], [ -83.606997202528746, 42.563878101027413 ], [ -83.597835306410019, 42.565832369315395 ], [ -83.588547381717731, 42.567429769735547 ], [ -83.57915889417508, 42.568665916702841 ], [ -83.569695591192399, 42.56953741511628 ], [ -83.560183429966173, 42.570041869896137 ], [ -83.520693994412468, 42.571362916302014 ], [ -83.520242555952464, 42.571377525868868 ], [ -83.505086806461321, 42.571853083528794 ], [ -83.501047830724715, 42.571985052423628 ], [ -83.491245802036602, 42.572303929513623 ], [ -83.489551953583259, 42.572353129015625 ], [ -83.481314843100733, 42.572563739325133 ], [ -83.472822720481588, 42.572854206161161 ], [ -83.471753873544117, 42.572888402587829 ], [ -83.467542859593536, 42.573013901585128 ], [ -83.467307097496587, 42.573020810598159 ], [ -83.461269573242134, 42.573194688375246 ], [ -83.442092995103891, 42.573819895676948 ], [ -83.440574831338083, 42.573873615136563 ], [ -83.439847620008237, 42.573898266726736 ], [ -83.431881578705088, 42.574156248136099 ], [ -83.430637158166903, 42.574193357998631 ], [ -83.42105663578846, 42.574454432192042 ], [ -83.420856269178387, 42.5744598023404 ], [ -83.406096645125459, 42.574848424404109 ], [ -83.405627358626461, 42.574860303209206 ], [ -83.401002312467241, 42.574972873578709 ], [ -83.392063645486189, 42.575207610088789 ], [ -83.382525433764499, 42.575480541020099 ], [ -83.375040367877261, 42.575695418490099 ], [ -83.37293420786726, 42.575757219386261 ], [ -83.3723796071626, 42.575772862985069 ], [ -83.372231289412269, 42.575776879383653 ], [ -83.371805235860165, 42.575788047833903 ], [ -83.362192718295077, 42.576031306471712 ], [ -83.352646342634188, 42.576277525922748 ], [ -83.352379457837571, 42.576284253617573 ], [ -83.342509299591086, 42.576527288098575 ], [ -83.336079820019975, 42.576681434499427 ], [ -83.335805947416347, 42.57668783882103 ], [ -83.326301288666912, 42.57690441955549 ], [ -83.322716319324229, 42.576990233636039 ], [ -83.32140208550021, 42.577018166357597 ], [ -83.317455383674186, 42.577091455782501 ], [ -83.303594227520676, 42.577439450855586 ], [ -83.302439443509513, 42.57746566554345 ], [ -83.292795750587061, 42.57766157753241 ], [ -83.284523063537932, 42.577823355391466 ], [ -83.275696279408336, 42.578081291415842 ], [ -83.274841157124243, 42.578104761432506 ], [ -83.265294821681778, 42.578349796587311 ], [ -83.256908125580111, 42.578572318776281 ], [ -83.245947793019198, 42.578863192381291 ], [ -83.244824553654951, 42.578890386388579 ], [ -83.231423726735557, 42.579183485895221 ], [ -83.225239184696136, 42.579318671073239 ], [ -83.22241834366956, 42.579381497409486 ], [ -83.216588900295889, 42.579520075349599 ], [ -83.211772606209252, 42.579653339851049 ], [ -83.207900692651023, 42.579762416906931 ], [ -83.19860063082281, 42.580057424815045 ], [ -83.195620503463928, 42.580133798871863 ], [ -83.191976581014842, 42.580205083920667 ], [ -83.186076363760804, 42.580325284954824 ], [ -83.176977107735851, 42.580514458965212 ], [ -83.167809052061585, 42.580749038714679 ], [ -83.167043880730787, 42.580767397685968 ], [ -83.157583115143836, 42.580979308165723 ], [ -83.156628594916242, 42.581001338605994 ], [ -83.152761983740589, 42.5810885641421 ], [ -83.147518217807828, 42.581204882915841 ], [ -83.147266650636226, 42.581210328418024 ], [ -83.141747808187461, 42.581326840735244 ], [ -83.141423111909347, 42.581333473898738 ], [ -83.129552632873242, 42.581567538382949 ], [ -83.122309384122048, 42.581709413647211 ], [ -83.121561729252875, 42.581722900581212 ], [ -83.12037676233922, 42.581742473142405 ], [ -83.116249718334345, 42.581907837811634 ], [ -83.10948421785335, 42.58208954339716 ], [ -83.098963488752332, 42.582147331932937 ], [ -83.094922979699433, 42.581997196968693 ], [ -83.093588745548459, 42.582030010425164 ], [ -83.088676204297087, 42.582135464282992 ], [ -83.080913099332832, 42.582179757297268 ], [ -83.079166770291422, 42.582134797586626 ], [ -83.074004040196499, 42.582196936060761 ], [ -83.068672485532872, 42.582258971940647 ], [ -83.068408924502506, 42.582266173084392 ], [ -83.06820309797007, 42.58227171051869 ], [ -83.066383196888239, 42.582319896999721 ], [ -83.065863752182679, 42.582333098699721 ], [ -83.060313841264673, 42.582468163106554 ], [ -83.050785380422766, 42.582720078847458 ], [ -83.049818528797886, 42.582743702847957 ], [ -83.044943068678961, 42.582853158674212 ], [ -83.042550758511709, 42.582895206692172 ], [ -83.038902329566938, 42.582941575248604 ], [ -83.031561496825105, 42.583109390311115 ], [ -83.016994795043558, 42.583581988466001 ], [ -83.014719553252647, 42.583677412789982 ], [ -83.014369805517845, 42.583690456210718 ], [ -83.013320868527018, 42.583727336064847 ], [ -83.010828533928432, 42.58380962283492 ], [ -83.008110465718318, 42.583884326993498 ], [ -82.99969040890565, 42.58406897722061 ], [ -82.991558282640995, 42.584253127594451 ], [ -82.984819502158885, 42.584423246762611 ], [ -82.980925360119798, 42.584530491646746 ], [ -82.974628250316513, 42.58478947814428 ], [ -82.972779286928571, 42.584839666342475 ], [ -82.970225502601863, 42.58489573038225 ], [ -82.961820448992299, 42.585036399071946 ], [ -82.959704084961018, 42.585071717485697 ], [ -82.950367703467478, 42.585235515087568 ], [ -82.943953413162106, 42.585261437163823 ], [ -82.943075492238535, 42.585298715639986 ], [ -82.937667928451617, 42.585498373785853 ], [ -82.930540368529719, 42.585658213402901 ], [ -82.919730119015625, 42.585743861242335 ], [ -82.91973006200034, 42.585739908103129 ], [ -82.918552016069853, 42.585761774675746 ], [ -82.91649196294334, 42.58577149252374 ], [ -82.913326476771687, 42.585805015685885 ], [ -82.910816167243169, 42.585818795838236 ], [ -82.906356047484365, 42.585820506324069 ], [ -82.902325636141697, 42.585872126918083 ], [ -82.900767846570332, 42.585887132993854 ], [ -82.893410019441575, 42.585934546191368 ], [ -82.892349867336762, 42.585939066333779 ], [ -82.885094551222039, 42.585954186073586 ], [ -82.879000433009821, 42.585996525533488 ], [ -82.872158437488082, 42.586050091881503 ], [ -82.862517681583526, 42.585936912549847 ], [ -82.852898514330803, 42.585447351656384 ], [ -82.843327883881017, 42.584582777332642 ], [ -82.833832600249352, 42.583345608271472 ], [ -82.824439258776451, 42.58173930685664 ], [ -82.815174164244155, 42.579768369313037 ], [ -82.80606325587739, 42.577438312907219 ], [ -82.797132033461608, 42.57475566023755 ], [ -82.788405484800222, 42.571727920661488 ], [ -82.779908014731859, 42.568363568916389 ], [ -82.771663375920951, 42.564672020999375 ], [ -82.763694601628913, 42.560663607378963 ], [ -82.75602394066523, 42.556349543619888 ], [ -82.748672794710117, 42.551741898510024 ], [ -82.741661658191177, 42.546853559785674 ], [ -82.735010060887674, 42.541698197558063 ], [ -82.728736513425375, 42.536290225551348 ], [ -82.722858455815228, 42.530644760267535 ], [ -82.717392209178001, 42.524777578200606 ], [ -82.712352930785499, 42.518705071226407 ], [ -82.70775457253815, 42.512444200300813 ], [ -82.703609842986154, 42.50601244760216 ], [ -82.699930172990207, 42.499427767258709 ], [ -82.696725685105022, 42.492708534804855 ], [ -82.694005166757222, 42.485873495513154 ], [ -82.691776047276363, 42.478941711751595 ], [ -82.690044378826272, 42.471932509517892 ], [ -82.688814821271336, 42.464865424303667 ], [ -82.688090631000364, 42.457760146443228 ], [ -82.687873653718839, 42.450636466101649 ], [ -82.6881643212092, 42.443514218057601 ], [ -82.688961652046231, 42.436413226435469 ], [ -82.690263256244762, 42.429353249541563 ], [ -82.692065343805226, 42.422353924957257 ], [ -82.692730102562336, 42.420351981440923 ], [ -82.693282853796518, 42.416775974541906 ], [ -82.694813571384955, 42.409969202915995 ], [ -82.696811094298226, 42.403229220583597 ], [ -82.699270064547704, 42.396573601359549 ], [ -82.700028557925123, 42.394867719120256 ], [ -82.700804492246419, 42.389311002251304 ], [ -82.702285265331042, 42.382312545251516 ], [ -82.704258606316003, 42.375381243889045 ], [ -82.706718930311425, 42.368536145141917 ], [ -82.709659320358327, 42.361796052918024 ], [ -82.71014175719516, 42.360781698718007 ], [ -82.710325166352689, 42.360396069192042 ], [ -82.713643948442837, 42.353947559751752 ], [ -82.717401875401364, 42.347633117296155 ], [ -82.72158902453836, 42.341469193837327 ], [ -82.726194364192267, 42.335471844352455 ], [ -82.728690506950542, 42.332575524553519 ], [ -82.731845583369193, 42.328003366519688 ], [ -82.73648628184732, 42.321696490482346 ], [ -82.741571489461663, 42.315581493888317 ], [ -82.747086728828336, 42.309675630901104 ], [ -82.753016322156441, 42.303995560650712 ], [ -82.757419674243664, 42.300000862259886 ], [ -82.762852713005017, 42.295295671665841 ], [ -82.768569967686688, 42.290780199245937 ], [ -82.773108690710416, 42.287509442699346 ], [ -82.77557364463074, 42.284755940128399 ], [ -82.781236522315467, 42.279094193328625 ], [ -82.783148099778813, 42.277377731299936 ], [ -82.784395537463979, 42.276105916302036 ], [ -82.790423029818982, 42.270593700568838 ], [ -82.796831228757242, 42.265324049860517 ], [ -82.803602398595331, 42.260311470063527 ], [ -82.810717817922807, 42.255569755795392 ], [ -82.818157831378286, 42.251111952950033 ], [ -82.82590190381454, 42.246950323311651 ], [ -82.831754455730419, 42.24414035264747 ], [ -82.835635285915586, 42.241310547114587 ], [ -82.842629772331136, 42.23670915886548 ], [ -82.849932179246977, 42.232380462763381 ], [ -82.857523246448849, 42.228335837270734 ], [ -82.865382966755107, 42.224585911716069 ], [ -82.87349063837155, 42.221140538794863 ], [ -82.881824918924664, 42.21800876910185 ], [ -82.89036388103716, 42.215198827756211 ], [ -82.899085069308086, 42.212718093176015 ], [ -82.927891432863575, 42.20514324779532 ], [ -82.937641406218503, 42.202805236405581 ], [ -82.947552492851528, 42.200878780933884 ], [ -82.949189792639757, 42.20063281272914 ], [ -82.949421435339275, 42.200275834047851 ], [ -82.949785851418213, 42.197967973108071 ], [ -82.950396148694693, 42.192243023712287 ], [ -82.951320840441028, 42.183570909325425 ], [ -82.951173424262791, 42.182996568682363 ], [ -82.949278818181611, 42.173989934918417 ], [ -82.94874865920363, 42.172882763360107 ], [ -82.945908803924596, 42.165721487794549 ], [ -82.943872217214846, 42.160007076496484 ], [ -82.941752062797107, 42.153388073985923 ], [ -82.940083054506431, 42.146697975039679 ], [ -82.938869292231828, 42.139953784507092 ], [ -82.938113715302478, 42.133172639412749 ], [ -82.937818096471432, 42.126371765285697 ], [ -82.937983038893734, 42.119568432318118 ], [ -82.938607976091546, 42.112779911465729 ], [ -82.939691174890925, 42.106023430601887 ], [ -82.941229741307836, 42.099316130836627 ], [ -82.943293009548469, 42.091509826898793 ], [ -82.945470727474898, 42.084312160204036 ], [ -82.948172348261821, 42.077213765605293 ], [ -82.951916667860672, 42.068307864352086 ], [ -82.954577660025294, 42.062453223592733 ], [ -82.955253568745704, 42.060246859126934 ], [ -82.957625265672959, 42.053347643659208 ], [ -82.96048113239317, 42.046551135096578 ], [ -82.963813086012678, 42.039876201277053 ], [ -82.967611730264935, 42.033341366572891 ], [ -82.971866383072225, 42.026964760801597 ], [ -82.97656510754814, 42.020764069288127 ], [ -82.981694746340708, 42.014756484211603 ], [ -82.987240959208634, 42.008958657366094 ], [ -82.993188263715453, 42.003386654460272 ], [ -82.999520078920014, 41.998055911076619 ], [ -83.006218771935238, 41.99298119040526 ], [ -83.013265707221166, 41.988176542863066 ], [ -83.020641298472754, 41.983655267702829 ], [ -83.0209377671422, 41.983492255802503 ], [ -83.024450740010565, 41.977332090889817 ], [ -83.028637245898594, 41.970945071645261 ], [ -83.033267537934066, 41.964731151430392 ], [ -83.038328690526455, 41.958707502686323 ], [ -83.043806599054903, 41.952890767053987 ], [ -83.049686019791991, 41.947297009844654 ], [ -83.055950612807948, 41.941941676138178 ], [ -83.062582987729883, 41.936839548623709 ], [ -83.069564752224338, 41.932004707292428 ], [ -83.076876563066051, 41.927450491086773 ], [ -83.084498179650893, 41.923189461605446 ], [ -83.092408519805943, 41.919233368956981 ], [ -83.100585717745616, 41.91559311984966 ], [ -83.109007184018594, 41.912278747998933 ], [ -83.117649667286756, 41.909299386927508 ], [ -83.126489317774272, 41.906663245227023 ], [ -83.135501752221842, 41.904377584343599 ], [ -83.144662120178694, 41.902448698943168 ], [ -83.15394517146261, 41.90088189990562 ], [ -83.16332532461665, 41.899681499990251 ], [ -83.172776736189036, 41.898850802208123 ], [ -83.182273370662244, 41.898392090930194 ], [ -83.191789070855364, 41.898306625752667 ], [ -83.201297628624047, 41.898594638134973 ], [ -83.203076873319787, 41.898683541168495 ], [ -83.212671680556909, 41.899354824012626 ], [ -83.222205219291013, 41.900406374957427 ], [ -83.231650560074399, 41.901835219690639 ], [ -83.24098101849485, 41.903637318056582 ], [ -83.250170229204841, 41.905807575306078 ], [ -83.25919221912649, 41.908339856273656 ], [ -83.268021479643338, 41.911227002444939 ], [ -83.276633037592063, 41.914460851869677 ], [ -83.285002524868929, 41.918032261868674 ], [ -83.286150003825938, 41.918584403233588 ], [ -83.291926404696355, 41.920541380537941 ], [ -83.300350798616719, 41.923802926198682 ], [ -83.301764614457213, 41.924385841653624 ], [ -83.303751873034855, 41.925261079743329 ], [ -83.307769121070933, 41.926582672529541 ], [ -83.316199416078391, 41.929757525336605 ], [ -83.324397182828903, 41.933256011592349 ], [ -83.332340161367071, 41.937068643895799 ], [ -83.340006771601551, 41.941185081746923 ], [ -83.34737617133888, 41.945594159167186 ], [ -83.354428312471327, 41.950283914540599 ], [ -83.355382364047841, 41.950988295232001 ], [ -83.35589030993404, 41.951187487838517 ], [ -83.363729219340399, 41.954647508877166 ], [ -83.370544459091235, 41.958011471082969 ], [ -83.379539279998539, 41.956263722166447 ], [ -83.388804681752418, 41.954843894509892 ], [ -83.398156468151157, 41.95378673243502 ], [ -83.407569229104141, 41.953095103985177 ], [ -83.417017392576184, 41.95277088392745 ], [ -83.475087672510824, 41.951895685563251 ], [ -83.488409295600988, 41.951564267707596 ], [ -83.49405658756541, 41.9514223840333 ], [ -83.495413466672062, 41.951392056570889 ], [ -83.534559724113421, 41.950619923804886 ], [ -83.544063960248153, 41.950616904076739 ], [ -83.553555332315113, 41.950985761649932 ], [ -83.563007801577399, 41.951725479964992 ], [ -83.572395434645728, 41.952834024957426 ], [ -83.58169247329289, 41.9543083505854 ], [ -83.590873403825952, 41.956144407083265 ], [ -83.599913025843307, 41.958337151919274 ], [ -83.608786520204859, 41.960880563430081 ], [ -83.617469516045048, 41.963767657096994 ], [ -83.625938156660212, 41.966990504423009 ], [ -83.634169164103099, 41.970540254362632 ], [ -83.642139902320693, 41.974407157250383 ], [ -83.649828438672756, 41.978580591167187 ], [ -83.657213603672517, 41.983049090677845 ], [ -83.664275048793215, 41.9878003778664 ], [ -83.670993302188293, 41.992821395590497 ], [ -83.677349822176808, 41.998098342869902 ], [ -83.683327048349298, 42.003616712318269 ], [ -83.688908450154784, 42.00936132952252 ], [ -83.69407857283359, 42.015316394268083 ], [ -83.698823080566669, 42.021465523503579 ], [ -83.703128796717337, 42.027791795933709 ], [ -83.706983741047466, 42.034277798123767 ], [ -83.710377163796792, 42.040905671995894 ], [ -83.713299576520626, 42.047657163591651 ], [ -83.715742779588368, 42.054513672973052 ], [ -83.717699886253428, 42.061456305129191 ], [ -83.719165343212168, 42.068465921753351 ], [ -83.720134947578856, 42.075523193751927 ], [ -83.720605860211776, 42.082608654344 ], [ -83.721511288970618, 42.111648880818578 ], [ -83.72174991781678, 42.118494892984138 ], [ -83.721766314474337, 42.119001911475316 ], [ -83.722412570922501, 42.140663005269218 ], [ -83.723542763936933, 42.170707739252713 ], [ -83.724368861429681, 42.192901042116993 ], [ -83.72493563677709, 42.204664823536625 ], [ -83.724982144295211, 42.205752227428235 ], [ -83.724984310092154, 42.205810219512728 ], [ -83.72503810736805, 42.207756020346892 ], [ -83.725180797279251, 42.215702039317861 ], [ -83.72572482352497, 42.227576746589747 ], [ -83.725810957263164, 42.23021226947494 ], [ -83.726139097884598, 42.246993446223691 ], [ -83.726045545806642, 42.253711453612787 ], [ -83.726015375054629, 42.254347451495811 ], [ -83.725912991350469, 42.256483432343131 ], [ -83.725896428779834, 42.256817305639792 ], [ -83.725670717974509, 42.261219085034952 ], [ -83.725577535006082, 42.26318670915736 ], [ -83.725934346435466, 42.273156434147459 ], [ -83.726308752550153, 42.282143009268033 ], [ -83.726506245173198, 42.286888469529728 ], [ -83.726576026629218, 42.288342377671249 ], [ -83.726592662016898, 42.288702461814601 ], [ -83.726981779470137, 42.29746445236939 ], [ -83.727128279822622, 42.300691561776311 ], [ -83.727533597435269, 42.307464989802192 ], [ -83.727573079383873, 42.308165723138018 ], [ -83.727943170105291, 42.315168597110201 ], [ -83.727966737922443, 42.315635054849814 ], [ -83.728307065102086, 42.322695550461866 ], [ -83.729425921777732, 42.344135724423417 ], [ -83.729442518471657, 42.344463915477455 ], [ -83.730162848768359, 42.35918063795674 ], [ -83.730305628312337, 42.362120346452329 ], [ -83.731172085748526, 42.378014884445278 ], [ -83.731183919549352, 42.378236389382678 ], [ -83.731669649649831, 42.38751890325571 ], [ -83.731676740999873, 42.387656194683203 ], [ -83.732397775107685, 42.401799114685012 ], [ -83.733212068408292, 42.415944626880908 ], [ -83.734000512029795, 42.429494011242738 ] ] ] } }
]
}
